#cP2017  5 10  0  0  0.00000000      96 ORBIT IGS14 HLM  IGS
## 1948 259200.00000000   900.00000000 57883 0.0000000000000
+   32   G01G02G03G04G05G06G07G08G09G10G11G12G13G14G15G16G17
+        G18G19G20G21G22G23G24G25G26G27G28G29G30G31G32  0  0
+          0  0  0  0  0  0  0  0  0  0  0  0  0  0  0  0  0
+          0  0  0  0  0  0  0  0  0  0  0  0  0  0  0  0  0
+          0  0  0  0  0  0  0  0  0  0  0  0  0  0  0  0  0
++         2  2  2  0  2  2  2  2  2  2  2  2  2  2  2  2  2
++         2  2  2  2  2  2  2  2  2  2  2  2  2  2  3  0  0
++         0  0  0  0  0  0  0  0  0  0  0  0  0  0  0  0  0
++         0  0  0  0  0  0  0  0  0  0  0  0  0  0  0  0  0
++         0  0  0  0  0  0  0  0  0  0  0  0  0  0  0  0  0
%c G  cc GPS ccc cccc cccc cccc cccc ccccc ccccc ccccc ccccc
%c cc cc ccc ccc cccc cccc cccc cccc ccccc ccccc ccccc ccccc
%f  1.2500000  1.025000000  0.00000000000  0.000000000000000
%f  0.0000000  0.000000000  0.00000000000  0.000000000000000
%i    0    0    0    0      0      0      0      0         0
%i    0    0    0    0      0      0      0      0         0
/* RAPID ORBIT COMBINATION FROM WEIGHTED AVERAGE OF:        
/* cod emr esa gfz jpl ngs usn whu                          
/* REFERENCED TO IGS TIME (IGST) AND TO WEIGHTED MEAN POLE: 
/* PCV:IGS14_1930 OL/AL:FES2004  NONE     Y  ORB:CMB CLK:CMB
*  2017  5 10 21 45  0.00000000
PG01  13581.624382  -9921.101002  20378.558729     54.481307     5  1 135       
PG02 -14135.202549 -13558.493703 -17582.036753    422.294865  7  8  4  88       
PG03  22899.203528 -13282.896637   1947.439501   -101.054787  6  7  3 134       
PG04   6405.298697  13470.015538 -22196.221465 999999.999999
PG05 -19258.302782  -2855.474868 -18239.804382    -46.632658  9  8  7 110       
PG06  -6621.662801 -24577.620657  -7533.244859    349.175428  7  3  5 117       
PG07   7489.108145 -22250.105016 -11820.026807    352.917970  9  7  5 121       
PG08  24193.272908   3968.562796  10390.048303    -59.282549  6  5  6 106       
PG09   7873.142028 -13239.325361 -21660.898525    360.566560  9  8  1 135       
PG10   -835.576178  17371.452440  20071.487968    -56.968763  5  5  4  97       
PG11  15860.727599  -4185.989391  20323.380562   -687.210438  4  5  4 125       
PG12 -24024.705640   8671.096657   6703.580165    383.836791  7  8  7 124       
PG13 -23335.695168 -11756.249340   4499.522242    -81.309934 10  5  8 124       
PG14  16016.592402  18508.171537  10787.969032    -70.232881  7  7  6 117       
PG15 -23459.549705    362.583686  12627.623150   -349.650999  9  6  1 100       
PG16  18259.550410   4302.515200 -19094.925540     33.013289  9 10  6  87       
PG17  -8134.293861 -18359.153957  17820.144469   -180.222580  9  6  5 106       
PG18  -9528.205704  20355.948794  14579.885013    614.831304  5  7  6 112       
PG19 -15009.465315 -18464.201237  11228.198421   -504.155220 10  8  6 110       
PG20 -22929.006132  11403.587764  -7183.971889    471.699271  9  8  6 102       
PG21  -2038.860749  25528.414684  -6007.665737   -507.753594  8  8  7 110       
PG22  23385.208714  -6376.218108  11180.498448     14.157670  8  8  3 124       
PG23  19070.825141  -4884.888618 -17790.135579   -211.535703  8  5  6 128       
PG24 -14537.355282   7148.498436  20923.419203    -34.648917  5  7  6 129       
PG25 -18689.621852  17517.488833  -6722.613372   -384.975673  5  8  7 127       
PG26   9744.680054  11813.933948 -21709.487603   -505.754863  8  7  7  69       
PG27  23527.927053  12545.589602   -990.635586    255.393579  7  5  2 122       
PG28   5420.089186 -17683.933231  19690.154612    611.742016  8  5  6 125       
PG29 -11184.405781  10333.671520 -21763.330928    605.413311  7  4  7 105       
PG30   -170.560896 -26483.527763    445.413205    157.160861  5  7  3 106       
PG31   7074.990481  23532.465616  -9487.157209    201.908392  7  8  6 114       
PG32   9903.122432  18095.337818  16777.401211   -410.029104  3  6  7 111       
*  2017  5 10 22  0  0.00000000
PG01  13860.177798  -7529.439335  21217.712168     54.481874     5  2 130       
PG02 -14225.213906 -15557.302864 -15846.211943    422.288212  8  8  5  82       
PG03  22731.955138 -12850.475982   4768.001397   -101.053236  7  7  4 130       
PG04   4330.634790  14802.041848 -21818.983932 999999.999999
PG05 -17595.903027  -4220.403350 -19591.561988    -46.630934  9  7  7 110       
PG06  -6456.308687 -25302.724424  -4781.104100    349.179920  6  2  6 110       
PG07   7822.021023 -20744.029342 -14127.071727    352.914206  9  7  5 141       
PG08  25044.710621   4584.491795   7786.978019    -59.283858  7  4  6 106       
PG09  10098.955827 -12196.204648 -21348.475271    360.573711  9  8  2 137       
PG10  -2721.029315  18552.993997  18795.140407    -56.960291  6  5  4  93       
PG11  16915.309373  -1988.598567  19809.208266   -687.212599  4  6  4 127       
PG12 -23314.444270   8021.303535   9425.174818    383.836220  8  8  8 117       
PG13 -23525.274657 -12144.482245   1650.858582    -81.311100 10  4  8 119       
PG14  14765.751476  18024.184913  13172.698468    -70.234221  7  7  6 113       
PG15 -24604.490358   -362.231168  10294.434569   -349.651533  9  6     84       
PG16  16380.150269   5480.658332 -20424.106160     33.013957 10  9  6  65       
PG17  -6272.740697 -17486.146702  19398.839354   -180.221017  8  5  5 111       
PG18 -10865.146594  21037.335728  12412.679031    614.832735  5  7  6 106       
PG19 -13644.985616 -17889.041650  13616.843063   -504.153955 10  8  6 118       
PG20 -22410.139587  10538.949774  -9739.055032    471.699787 10  8  6 106       
PG21  -2474.189915  24637.374172  -8653.562947   -507.751569  8  8  7  84       
PG22  22464.083613  -5309.469489  13442.056405     14.146592  8  8  3 118       
PG23  20792.294636  -3916.098835 -16079.478738   -211.536239  9  6  7 119       
PG24 -14886.604442   4726.264009  21380.075033    -34.650223  5  7  6 129       
PG25 -19300.995844  17678.071904  -3908.113746   -384.981639  5  8  6 117       
PG26   7725.316211  13257.277200 -21680.821708   -505.751266  8  6  7  77       
PG27  23201.464039  12611.441726  -3844.380445    255.399569  7  5  4 116       
PG28   7221.694006 -18644.691774  18111.149631    611.744681  8  7  6 125       
PG29 -13315.495784   9133.026026 -21087.326126    605.410609  7  5  7  75       
PG30    133.739033 -26380.540742  -2389.948878    157.160020  6  7  2 105       
PG31   6878.666540  24494.978169  -6806.171605    201.906270  7  7  6 113       
PG32   8012.366296  17394.892115  18442.459743   -410.038767  4  6  7 114       
*  2017  5 10 22 15  0.00000000
PG01  14274.176099  -5084.154869  21686.725837     54.482394     4  3 137       
PG02 -14374.149110 -17333.570691 -13831.794959    422.281212  9  8  5  71       
PG03  22340.278819 -12214.761353   7506.352300   -101.051667  7  7  3 128       
PG04   2381.537660  16211.707099 -21072.970404 999999.999999
PG05 -15900.151923  -5752.367020 -20610.304962    -46.629366  8  7  6 107       
PG06  -6282.546036 -25722.315106  -1946.552454    349.184399  6  2  6 115       
PG07   8262.582786 -19009.411643 -16183.399801    352.910361  9  7  5 138       
PG08  25646.284151   5046.220486   5050.859123    -59.285250  8  5  6  99       
PG09  12322.846827 -11288.354810 -20669.531431    360.580872  9  8  4 136       
PG10  -4416.254230  19729.648706  17194.982215    -56.951821  7  6  4  94       
PG11  18017.780800     94.480692  18936.879063   -687.215109  5  6  5 124       
PG12 -22394.637995   7158.074105  11981.505361    383.835626  8  9  8 122       
PG13 -23449.277652 -12367.423668  -1226.337769    -81.312839  9  4  7 131       
PG14  13263.233865  17495.223521  15335.912481    -70.235312  7  6  5 119       
PG15 -25522.757053   -946.863383   7786.297956   -349.652220  9  6  1  93       
PG16  14461.687779   6839.530395 -21409.192924     33.014668 10  9  6  84       
PG17  -4221.603945 -16654.192497  20654.731067   -180.219668  7  4  4 112       
PG18 -11982.427258  21615.027426  10036.013501    614.834439  5  7  5  99       
PG19 -12018.546607 -17269.908921  15764.098902   -504.152808 10  7  6 113       
PG20 -21731.425918   9460.354511 -12127.482121    471.701443 10  8  6 102       
PG21  -3010.772912  23475.469276 -11144.777378   -507.749690  7  8  6  87       
PG22  21412.212110  -4045.931097  15476.192218     14.135904  8  7  1 121       
PG23  22362.018716  -3113.066964 -14092.533199   -211.536936  9  6  7 119       
PG24 -15359.943986   2296.218689  21465.404062    -34.651173  6  7  6 128       
PG25 -19649.122252  17669.787147  -1025.627500   -384.987600  5  8  5 115       
PG26   5801.617372  14788.436531 -21279.143682   -505.747711  8  6  7  75       
PG27  22582.825703  12579.388434  -6632.889045    255.405604  8  6  5 122       
PG28   8809.526668 -19601.835534  16234.709149    611.747442  8  7  6 132       
PG29 -15421.720904   8092.802569 -20048.432810    605.407880  7  6  8  86       
PG30    469.721365 -25974.842488  -5183.844773    157.159154  5  7  3  98       
PG31   6697.000949  25154.813241  -4005.052133    201.904123  7  6  7 108       
PG32   5928.843112  16731.713090  19791.139198   -410.048418  5  6  6 113       
EOF
